{"type":"Feature","properties":{},"geometry":{"type":"LineString","coordinates":[[120.77202,23.71672],[120.77123,23.71577],[120.77116,23.71568],[120.77112,23.71558],[120.7711,23.71547],[120.77112,23.71538],[120.77114,23.71528],[120.7712,23.71519],[120.77131,23.71511],[120.77144,23.71504],[120.77191,23.71492],[120.77226,23.71483],[120.77256,23.71472],[120.77279,23.71461],[120.77283,23.7146],[120.77337,23.71448],[120.77346,23.71448],[120.77352,23.71447],[120.77355,23.71445],[120.77357,23.7144],[120.77355,23.71437],[120.77341,23.71427],[120.77232,23.71341],[120.7717,23.71298],[120.77161,23.71287],[120.77157,23.71279],[120.77155,23.7126],[120.77163,23.71229],[120.77168,23.71223],[120.77174,23.71217],[120.77223,23.71182],[120.7726,23.71157],[120.77265,23.71154],[120.7729,23.71147],[120.77308,23.71141],[120.77313,23.71137],[120.77335,23.71121],[120.77341,23.71118],[120.77347,23.71117],[120.77357,23.71114],[120.7736,23.71114],[120.77374,23.71114],[120.77379,23.71113],[120.77383,23.71113],[120.77405,23.71106],[120.77409,23.71105],[120.7744,23.71101],[120.77452,23.71098],[120.7747,23.71094],[120.77511,23.7109],[120.77519,23.71088],[120.77519,23.71088],[120.77546,23.7112],[120.77551,23.71124],[120.7756,23.71128],[120.7757,23.71129],[120.77582,23.71129],[120.77659,23.7112],[120.77672,23.71116],[120.77676,23.71111],[120.7768,23.71105],[120.7768,23.71099],[120.77668,23.71028],[120.77668,23.71002],[120.77672,23.70993],[120.77676,23.70985],[120.77683,23.70978],[120.77691,23.70974],[120.777,23.70974],[120.77706,23.70976],[120.77713,23.70981],[120.77721,23.70989],[120.77771,23.71066],[120.77779,23.71084],[120.77792,23.71122],[120.77803,23.71139],[120.77811,23.71146],[120.77833,23.71159],[120.77841,23.71161],[120.77852,23.71163],[120.77863,23.71161],[120.77874,23.71159],[120.77882,23.71152],[120.77891,23.71146],[120.77895,23.71139],[120.77895,23.71129],[120.77893,23.71099],[120.77893,23.7109],[120.77895,23.71084],[120.77901,23.71081],[120.77908,23.71081],[120.77914,23.71084],[120.77914,23.71084],[120.77916,23.71092],[120.77919,23.71099],[120.77921,23.71109],[120.77916,23.71131],[120.77908,23.71163],[120.77884,23.71234],[120.7788,23.71242],[120.77876,23.71247],[120.77867,23.71251],[120.77859,23.71255],[120.77839,23.71259],[120.77785,23.71271],[120.77775,23.71273],[120.77771,23.71275],[120.77762,23.71279],[120.77753,23.71285],[120.7773,23.71313],[120.77719,23.71322],[120.7771,23.71327],[120.77688,23.71342],[120.77667,23.71362],[120.77637,23.71399],[120.77633,23.7141],[120.77631,23.71418],[120.77631,23.71427],[120.77635,23.71435],[120.77661,23.7147],[120.7767,23.71493],[120.77674,23.715],[120.7768,23.71504],[120.77689,23.71506],[120.77717,23.71513],[120.77725,23.71517],[120.77728,23.71521],[120.7773,23.7153],[120.77727,23.71554],[120.77727,23.7156],[120.77731,23.71572],[120.77734,23.71579],[120.77743,23.71588],[120.77756,23.71601],[120.77762,23.71608],[120.77763,23.71616],[120.77762,23.71624],[120.77759,23.71632],[120.77753,23.71641],[120.77734,23.71661],[120.77728,23.71669],[120.77723,23.71685],[120.77721,23.71705],[120.77722,23.71724],[120.77725,23.71736],[120.77732,23.71749],[120.77751,23.71777],[120.77764,23.71792],[120.77783,23.71811],[120.77809,23.71824],[120.77856,23.71843],[120.77863,23.71847],[120.77869,23.71854],[120.77874,23.7186],[120.77878,23.71886],[120.77882,23.71897],[120.77882,23.71897],[120.77891,23.71873],[120.77914,23.71835],[120.77923,23.71809],[120.77927,23.71783],[120.77925,23.71759],[120.77923,23.71749],[120.7791,23.71714],[120.77903,23.71679],[120.77906,23.71633],[120.77908,23.71619],[120.7791,23.71605],[120.77917,23.71577],[120.77918,23.71549],[120.77916,23.71536],[120.77901,23.71491],[120.77899,23.71481],[120.779,23.71472],[120.77903,23.71465],[120.7791,23.71459],[120.77921,23.71453],[120.77943,23.71447],[120.77968,23.71445],[120.78012,23.71449],[120.7802,23.71449],[120.78031,23.71447],[120.78038,23.71443],[120.78044,23.71436],[120.78046,23.71429],[120.7805,23.71396],[120.78049,23.71391],[120.78047,23.71388],[120.78017,23.71369],[120.78003,23.71357],[120.77997,23.71348],[120.77993,23.71337],[120.77994,23.71323],[120.77997,23.71314],[120.78001,23.71306],[120.7801,23.71294],[120.78041,23.71263],[120.78062,23.71234],[120.78084,23.71191],[120.78103,23.71146],[120.78116,23.71096],[120.78131,23.71054],[120.78135,23.71034],[120.7814,23.70961],[120.7814,23.70944],[120.78121,23.70877],[120.78121,23.70862],[120.78121,23.70856],[120.78141,23.7083],[120.78147,23.70821],[120.78155,23.70809],[120.7817,23.70779],[120.78174,23.70762],[120.78174,23.70742],[120.78156,23.70707],[120.78154,23.70687],[120.78158,23.70664],[120.78176,23.70596],[120.78176,23.70579],[120.78176,23.70541],[120.78174,23.70474],[120.78174,23.70451],[120.78176,23.70442],[120.78185,23.70418],[120.78219,23.70358],[120.78234,23.70339],[120.78245,23.7033],[120.78258,23.70324],[120.78346,23.70279],[120.78361,23.70266],[120.78369,23.70257],[120.78373,23.7025],[120.78376,23.70245],[120.78382,23.70227],[120.78384,23.70217],[120.78382,23.70193],[120.78378,23.70187],[120.78371,23.7018],[120.78364,23.70176],[120.78361,23.70174],[120.7835,23.70169],[120.78311,23.70157],[120.78303,23.70154],[120.78292,23.70154],[120.78281,23.70157],[120.7827,23.70161],[120.78232,23.70188],[120.78223,23.7019],[120.78214,23.7019],[120.78204,23.70188],[120.78195,23.70184],[120.78191,23.70175],[120.78191,23.70167],[120.78191,23.70158],[120.78195,23.7015],[120.78221,23.7012],[120.78234,23.70101],[120.78236,23.7009],[120.78236,23.70075],[120.78236,23.70071],[120.78232,23.70019],[120.78234,23.69991],[120.78236,23.69978],[120.78245,23.69955],[120.7826,23.69938],[120.7834,23.69881],[120.78353,23.69874],[120.7837,23.6987],[120.78412,23.69865],[120.78429,23.69861],[120.78444,23.69856],[120.78459,23.69848],[120.78474,23.69837],[120.78498,23.69811],[120.78507,23.69798],[120.78511,23.69779],[120.78513,23.69764],[120.78511,23.69751],[120.78504,23.69723],[120.78502,23.69704],[120.78502,23.6967],[120.78504,23.69655],[120.78515,23.69627],[120.7856,23.69543],[120.78575,23.69519],[120.78674,23.69386],[120.78678,23.69375],[120.7868,23.69365],[120.78685,23.69335],[120.78679,23.69297],[120.78679,23.69287],[120.78681,23.69276],[120.78688,23.69267],[120.78696,23.69259],[120.78707,23.69252],[120.78718,23.6925],[120.78789,23.69253],[120.78797,23.69253],[120.78808,23.69249],[120.78812,23.69246],[120.78823,23.69237],[120.78829,23.69228],[120.78834,23.69219],[120.78846,23.69185],[120.78859,23.69139],[120.78864,23.69132],[120.78871,23.69125],[120.78886,23.69117],[120.789,23.69115],[120.78921,23.69115],[120.78935,23.69113],[120.78967,23.69092],[120.78984,23.69083],[120.78989,23.69079],[120.7899,23.69061],[120.78984,23.6902],[120.78981,23.69],[120.78986,23.68991],[120.78991,23.68983],[120.79009,23.68971],[120.79042,23.68957],[120.79065,23.68945],[120.79071,23.68936],[120.79077,23.68924],[120.7911,23.68825],[120.7914,23.68758],[120.79144,23.68738],[120.79148,23.68713],[120.79155,23.68702],[120.79191,23.68657],[120.79203,23.68639],[120.79209,23.68633],[120.79221,23.68629],[120.79238,23.68627],[120.79288,23.68636],[120.79301,23.68636],[120.79309,23.68633],[120.79317,23.68628],[120.79324,23.68621],[120.79328,23.68613],[120.79337,23.68586],[120.79341,23.68573],[120.79349,23.6854],[120.79348,23.68529],[120.79341,23.68489],[120.79343,23.68466],[120.79352,23.68449],[120.79363,23.6843],[120.79372,23.68408],[120.79373,23.68397],[120.79375,23.68378],[120.79378,23.68363],[120.7938,23.68354],[120.79388,23.68344],[120.79408,23.68325],[120.79416,23.68313],[120.79423,23.68303],[120.79427,23.68288],[120.79433,23.68258],[120.79439,23.68219],[120.79439,23.68209],[120.79437,23.682],[120.79432,23.68194],[120.79423,23.68183],[120.79415,23.68179],[120.79404,23.68183],[120.79392,23.68183],[120.79381,23.68183],[120.79373,23.68181],[120.79366,23.68179],[120.7936,23.68173],[120.79352,23.68161],[120.79346,23.68146],[120.79348,23.68124],[120.79356,23.68084],[120.7936,23.68072],[120.7936,23.68072],[120.79369,23.68067],[120.7938,23.68067],[120.79386,23.68069],[120.79398,23.68075],[120.79432,23.68101],[120.79442,23.68105],[120.79452,23.68107],[120.79463,23.68103],[120.79474,23.68095],[120.79478,23.6809],[120.79481,23.68084],[120.7948,23.68075],[120.79475,23.68068],[120.79431,23.68],[120.79425,23.67987],[120.7942,23.67973],[120.79417,23.67958],[120.79417,23.67943],[120.79423,23.67921],[120.79429,23.67906],[120.79444,23.67878],[120.79453,23.67867],[120.79471,23.67841],[120.79475,23.67829],[120.79472,23.67821],[120.79468,23.67808],[120.79456,23.67793],[120.7942,23.67758],[120.79411,23.67745],[120.79405,23.67735],[120.79405,23.67729],[120.79405,23.67729],[120.79412,23.67726],[120.79422,23.67725],[120.79431,23.67724],[120.79441,23.67726],[120.79462,23.67732],[120.79476,23.67735],[120.79489,23.67735],[120.795,23.67732],[120.79508,23.67726],[120.79515,23.67716],[120.79521,23.67698],[120.79523,23.67679],[120.79528,23.67645],[120.79524,23.67616],[120.79523,23.6761],[120.79517,23.6756],[120.79512,23.67528],[120.79511,23.675],[120.79513,23.67477],[120.79516,23.67459],[120.79531,23.67404],[120.79535,23.67391],[120.7954,23.67358],[120.79573,23.6729],[120.79584,23.67288],[120.79614,23.67295],[120.79614,23.67295],[120.79617,23.67283],[120.79621,23.67266],[120.79626,23.67256],[120.79648,23.67228],[120.79648,23.67228],[120.79656,23.67214],[120.79663,23.67184],[120.79673,23.67164],[120.79676,23.67102],[120.79674,23.67086],[120.79671,23.67079],[120.79668,23.67069],[120.79667,23.67066],[120.79662,23.67055],[120.79651,23.67047],[120.79643,23.67046],[120.7964,23.67046],[120.79634,23.67046],[120.7962,23.67052],[120.79613,23.67056],[120.79599,23.67064],[120.79594,23.67064],[120.7958,23.67055],[120.79559,23.67044],[120.79541,23.6704],[120.79518,23.67037],[120.79518,23.67037],[120.79522,23.67007],[120.79521,23.66986],[120.79528,23.66966],[120.79528,23.66955],[120.79523,23.6693],[120.79522,23.6691],[120.79517,23.66899],[120.79513,23.66875],[120.79509,23.66863],[120.79506,23.66842],[120.79512,23.66835],[120.79528,23.66827],[120.7954,23.66817],[120.79555,23.66806],[120.79563,23.66799],[120.79565,23.6679],[120.7956,23.6678],[120.79552,23.66773],[120.79536,23.66754],[120.79519,23.66747],[120.79489,23.66736],[120.79478,23.66733],[120.79455,23.66728],[120.79436,23.66725],[120.79426,23.66726],[120.79414,23.6673],[120.79399,23.66733],[120.79385,23.66733],[120.79373,23.66731],[120.79357,23.6673],[120.79328,23.66729],[120.79302,23.66727],[120.79287,23.66721],[120.79277,23.66714],[120.79265,23.66705],[120.79258,23.66699],[120.79251,23.66691],[120.7925,23.66685],[120.79251,23.6668],[120.79263,23.66669],[120.79286,23.66656],[120.79294,23.66648],[120.79301,23.66636],[120.79302,23.66632],[120.79302,23.6662],[120.79305,23.6661],[120.79322,23.66585],[120.79323,23.66578],[120.79329,23.6655],[120.79333,23.66535],[120.79336,23.66529],[120.79335,23.66522],[120.79332,23.66509],[120.79317,23.6649],[120.79315,23.66479],[120.79318,23.66469],[120.7932,23.66451],[120.79323,23.66432],[120.79329,23.66422],[120.79333,23.66412],[120.79334,23.66405],[120.79333,23.66392],[120.7933,23.66388],[120.793,23.6638],[120.79289,23.66371],[120.79273,23.66371],[120.79255,23.66395],[120.79243,23.66395],[120.79234,23.66387],[120.79231,23.6638],[120.79229,23.66371],[120.79238,23.6636],[120.79249,23.66353],[120.79264,23.66347],[120.79277,23.66342],[120.793,23.66342],[120.79311,23.66342],[120.79331,23.66341],[120.79347,23.66331],[120.79358,23.66321],[120.79386,23.66316],[120.79394,23.66307],[120.79397,23.66297],[120.79395,23.6628],[120.79397,23.66273],[120.79405,23.66259],[120.79417,23.66244],[120.79432,23.66233],[120.79449,23.66222],[120.79468,23.66218],[120.79482,23.66218],[120.79495,23.66222],[120.79507,23.66228],[120.79517,23.66221],[120.7953,23.66216],[120.79546,23.66214],[120.79562,23.66213],[120.79584,23.66197],[120.79606,23.66176],[120.79618,23.66161],[120.79632,23.66152],[120.79646,23.66145],[120.79655,23.66141],[120.79662,23.66134],[120.79665,23.66128],[120.79671,23.66119],[120.79672,23.66115],[120.79681,23.66088],[120.79689,23.66073],[120.79698,23.66065],[120.79707,23.66065],[120.79723,23.66071],[120.79739,23.66079],[120.79765,23.66083],[120.79786,23.66089],[120.79802,23.66094],[120.79808,23.66095],[120.79811,23.66095],[120.79811,23.66095],[120.79806,23.66067],[120.79798,23.6606],[120.79775,23.66048],[120.79756,23.66038],[120.79748,23.66025],[120.79748,23.66017],[120.79745,23.66012],[120.79737,23.66006],[120.79725,23.66003],[120.79716,23.65998],[120.79707,23.65997],[120.79693,23.65999],[120.79681,23.66009],[120.79672,23.66014],[120.79666,23.66016],[120.7966,23.6602],[120.79643,23.6604],[120.7964,23.66046],[120.79635,23.66053],[120.79626,23.66061],[120.79623,23.66062],[120.7961,23.66058],[120.79602,23.66047],[120.79597,23.6604],[120.79588,23.6603],[120.79577,23.66025],[120.79563,23.66022],[120.79544,23.66016],[120.79509,23.66005],[120.79483,23.65998],[120.79457,23.65983],[120.79452,23.65984],[120.79443,23.65984],[120.79439,23.65984],[120.79418,23.65989],[120.79401,23.65995],[120.79382,23.66005],[120.79362,23.66016],[120.79337,23.66019],[120.79316,23.66031],[120.79298,23.6605],[120.79295,23.66066],[120.793,23.66083],[120.79302,23.66096],[120.79301,23.66104],[120.79295,23.66107],[120.79286,23.66109],[120.79277,23.66107],[120.7927,23.66104],[120.7927,23.66096],[120.79273,23.66089],[120.79279,23.66085],[120.79282,23.66077],[120.79281,23.66061],[120.79285,23.66047],[120.79288,23.66034],[120.79294,23.66022],[120.79291,23.66013],[120.793,23.65989],[120.79308,23.65981],[120.79318,23.65976],[120.79328,23.65973],[120.79344,23.65964],[120.79353,23.65957],[120.79363,23.65954],[120.79381,23.65946],[120.79402,23.65931],[120.79414,23.6592],[120.79425,23.65909],[120.79446,23.65894],[120.79461,23.65885],[120.79501,23.65871],[120.79523,23.65869],[120.79535,23.65865],[120.7955,23.65851],[120.79559,23.65839],[120.79569,23.6583],[120.7958,23.65827],[120.79588,23.6583],[120.79615,23.65841],[120.79633,23.65864],[120.79645,23.65891],[120.79655,23.65902],[120.79662,23.65897],[120.79671,23.65881],[120.79696,23.65857],[120.79729,23.65851],[120.79752,23.6584],[120.79815,23.65862],[120.79851,23.65867],[120.79873,23.65854],[120.79885,23.65833],[120.799,23.65824],[120.79959,23.65831],[120.7998,23.65815],[120.80004,23.65776],[120.80034,23.65746],[120.80063,23.65728],[120.80074,23.65725],[120.80088,23.65732],[120.80095,23.65757],[120.80108,23.65775],[120.8016,23.65811],[120.80166,23.6584],[120.80195,23.65871],[120.80203,23.65887],[120.80212,23.65923],[120.80206,23.6594],[120.80212,23.65964],[120.80216,23.65995],[120.80223,23.66023],[120.80223,23.66056],[120.80221,23.66086],[120.80232,23.66125],[120.80234,23.66157],[120.80218,23.66235],[120.80222,23.6627],[120.80237,23.66298],[120.8026,23.66305],[120.80354,23.66332],[120.80424,23.66363],[120.80436,23.66383],[120.80475,23.66403],[120.80484,23.66424],[120.805,23.66442],[120.80511,23.66475],[120.8052,23.665],[120.80514,23.66525],[120.80519,23.66536],[120.80527,23.66536],[120.80529,23.66533],[120.80534,23.66522],[120.80535,23.66507],[120.80535,23.6649],[120.80533,23.66465],[120.80528,23.66432],[120.80517,23.66405],[120.80514,23.66383],[120.80507,23.66369],[120.80489,23.66336],[120.80469,23.6631],[120.80436,23.66263],[120.80393,23.66227],[120.80382,23.66207],[120.80384,23.6619],[120.80405,23.66154],[120.8041,23.66109],[120.8041,23.66082],[120.80416,23.66053],[120.80414,23.6601],[120.80411,23.65966],[120.80415,23.65957],[120.80423,23.65956],[120.8043,23.65966],[120.80434,23.65989],[120.80443,23.66031],[120.80454,23.66065],[120.80474,23.66101],[120.8048,23.66121],[120.80495,23.6617],[120.80496,23.66193],[120.80502,23.66201],[120.80531,23.66212],[120.80565,23.6623],[120.80609,23.6627],[120.80645,23.66311],[120.80657,23.66311],[120.80659,23.663],[120.80634,23.66267],[120.80602,23.66229],[120.80563,23.66191],[120.80548,23.66148],[120.80543,23.66112],[120.80542,23.66091],[120.80541,23.66078],[120.80534,23.66072],[120.80514,23.66066],[120.80505,23.66057],[120.80507,23.66039],[120.8051,23.66013],[120.80498,23.65988],[120.80499,23.6597],[120.80505,23.65954],[120.80517,23.65942],[120.80526,23.6594],[120.80526,23.6594],[120.80529,23.65951],[120.80522,23.65963],[120.8052,23.65975],[120.80527,23.65989],[120.80533,23.65995],[120.80539,23.66016],[120.80543,23.66037],[120.8055,23.66045],[120.8056,23.6605],[120.80573,23.66062],[120.80588,23.66087],[120.80606,23.66124],[120.80612,23.66138],[120.80626,23.66161],[120.80646,23.6617],[120.80674,23.66188],[120.80694,23.66202],[120.80713,23.66209],[120.80728,23.66219],[120.80738,23.66232],[120.80746,23.66245],[120.80769,23.66271],[120.80782,23.66283],[120.80795,23.66293],[120.80806,23.66307],[120.80822,23.66308],[120.80822,23.66308],[120.80827,23.66312],[120.80842,23.66353],[120.8085,23.66389],[120.80856,23.66416],[120.80879,23.66472],[120.80879,23.66519],[120.80911,23.6657],[120.8092,23.66641],[120.80935,23.66714],[120.80938,23.66774],[120.80955,23.6681],[120.80961,23.66814],[120.8097,23.66814],[120.8097,23.66814],[120.80983,23.66818],[120.80996,23.6683],[120.80998,23.66838],[120.80994,23.66849],[120.80989,23.6687],[120.80984,23.66897],[120.80968,23.66918],[120.80957,23.66937],[120.8094,23.66958],[120.80927,23.66966],[120.80919,23.66969],[120.80908,23.66973],[120.80899,23.6698],[120.80889,23.66986],[120.80879,23.66991],[120.80873,23.66998],[120.80872,23.67005],[120.80873,23.67012],[120.80881,23.67018],[120.80883,23.67026],[120.80878,23.6704],[120.80866,23.67058],[120.80867,23.67085],[120.80864,23.67109],[120.80865,23.67129],[120.80859,23.6715],[120.80857,23.67169],[120.8086,23.67184],[120.80859,23.67193],[120.80853,23.67209],[120.80853,23.67239],[120.80838,23.67275],[120.80838,23.67275]]}}