{"type":"Feature","properties":{},"geometry":{"type":"LineString","coordinates":[[120.6794,23.74754],[120.67942,23.74759],[120.67962,23.74797],[120.67975,23.74814],[120.67984,23.74825],[120.67984,23.74825],[120.67971,23.74824],[120.67971,23.74824],[120.67901,23.74874],[120.67863,23.74903],[120.67863,23.74903],[120.67897,23.74955],[120.67904,23.74966],[120.67909,23.74974],[120.6791,23.74975],[120.67917,23.74986],[120.67925,23.74998],[120.67943,23.75025],[120.67964,23.75058],[120.67964,23.75058],[120.67925,23.75088],[120.67898,23.75117],[120.6789,23.75125],[120.67861,23.75154],[120.67851,23.75169],[120.67822,23.75218],[120.67797,23.75276],[120.6778,23.75317],[120.67741,23.75409],[120.67729,23.75449],[120.67728,23.75452],[120.67728,23.75452],[120.67736,23.75461],[120.67794,23.7552],[120.67807,23.75533],[120.67834,23.75578],[120.67861,23.75622],[120.67878,23.75654],[120.67883,23.7566],[120.67906,23.75697],[120.67941,23.75741],[120.67977,23.75794],[120.68018,23.75843],[120.68038,23.75863],[120.68066,23.75884],[120.6809,23.75902],[120.68099,23.75906],[120.68117,23.75914],[120.68132,23.75919],[120.68227,23.75953],[120.68244,23.75958],[120.68281,23.75969],[120.68319,23.75981],[120.68369,23.75997],[120.68438,23.76014],[120.68459,23.76017],[120.68506,23.76021],[120.68564,23.76025],[120.68588,23.76027],[120.68613,23.76029],[120.68651,23.76032],[120.68672,23.76035],[120.68792,23.76045],[120.68801,23.76046],[120.68838,23.76049],[120.689,23.76054],[120.6897,23.7606],[120.68987,23.76061],[120.69167,23.76077],[120.69214,23.76082],[120.69214,23.76082],[120.69232,23.76086],[120.69253,23.76091],[120.69338,23.76116],[120.69408,23.76136],[120.69548,23.76177],[120.69562,23.76181],[120.69606,23.76194],[120.69631,23.76202],[120.69701,23.76222],[120.69724,23.76228],[120.69752,23.76236],[120.69782,23.76245],[120.6982,23.76257],[120.69885,23.76278],[120.69905,23.76284],[120.69919,23.76287],[120.69968,23.76303],[120.7002,23.76321],[120.70059,23.76335],[120.70137,23.76362],[120.70204,23.76385],[120.70272,23.76408],[120.70279,23.7641],[120.70309,23.76427],[120.70335,23.76445],[120.70376,23.76469],[120.70396,23.76483],[120.70416,23.76495],[120.7049,23.76542],[120.70517,23.76563],[120.70532,23.76578],[120.70535,23.7658],[120.7056,23.76604],[120.7056,23.76604],[120.70565,23.76608],[120.70579,23.76622],[120.70594,23.76635],[120.70615,23.76655],[120.70632,23.76671],[120.70653,23.76693],[120.70663,23.76704],[120.70668,23.76718],[120.70668,23.76718],[120.70727,23.76733],[120.70737,23.76736],[120.70795,23.76755],[120.70798,23.76756],[120.70843,23.76771],[120.70919,23.76781],[120.70936,23.76781],[120.70981,23.76777],[120.70996,23.76777],[120.71009,23.76777],[120.71033,23.76783],[120.71073,23.76796],[120.71162,23.76823],[120.71221,23.76808],[120.71281,23.76789],[120.71318,23.76776],[120.71374,23.76753],[120.71409,23.76736],[120.71469,23.76702],[120.71497,23.76687],[120.71524,23.76671],[120.71584,23.76636],[120.71606,23.76626],[120.71631,23.76617],[120.71652,23.76611],[120.71678,23.76604],[120.71721,23.76593],[120.71786,23.76576],[120.71844,23.7656],[120.71958,23.76529],[120.71976,23.76524],[120.71992,23.76512],[120.72078,23.76437],[120.72185,23.76345],[120.72227,23.76309],[120.7224,23.763],[120.72249,23.76296],[120.72257,23.76294],[120.72266,23.76294],[120.72279,23.76295],[120.72279,23.76295],[120.72331,23.76337],[120.72351,23.76351],[120.72376,23.76364],[120.72397,23.76372],[120.72414,23.76374],[120.72414,23.76374],[120.72433,23.76377],[120.72447,23.76373],[120.72462,23.76368],[120.72471,23.76363],[120.72478,23.76358],[120.72486,23.76347],[120.72523,23.76294],[120.72547,23.76265],[120.72584,23.76218],[120.72621,23.76169],[120.72629,23.76158],[120.72634,23.76143],[120.72638,23.76115],[120.72644,23.76098],[120.72656,23.76071],[120.72671,23.76043],[120.72677,23.76035],[120.72684,23.76032],[120.72696,23.76032],[120.72702,23.76034],[120.72707,23.76041],[120.72709,23.76049],[120.72708,23.76056],[120.72705,23.76062],[120.72697,23.76072],[120.72672,23.76101],[120.72668,23.76107],[120.72666,23.76115],[120.72669,23.76121],[120.72676,23.76127],[120.72689,23.76129],[120.72706,23.76126],[120.72752,23.7612],[120.72767,23.76124],[120.72771,23.76128],[120.72775,23.76133],[120.72777,23.76141],[120.72775,23.76154],[120.72772,23.76159],[120.72763,23.76163],[120.72752,23.76163],[120.72717,23.76164],[120.72708,23.76165],[120.72701,23.76168],[120.72694,23.76179],[120.72692,23.76188],[120.7269,23.76227],[120.72689,23.76234],[120.72687,23.76241],[120.72683,23.76249],[120.7266,23.76283],[120.72651,23.76293],[120.7264,23.763],[120.7263,23.76304],[120.72601,23.76313],[120.72593,23.76319],[120.72588,23.76325],[120.72584,23.76334],[120.72574,23.76367],[120.72569,23.76382],[120.7257,23.76391],[120.72577,23.76399],[120.72588,23.76401],[120.72601,23.76398],[120.72625,23.76388],[120.72645,23.76385],[120.72688,23.76384],[120.72703,23.76387],[120.72727,23.764],[120.7276,23.76422],[120.72785,23.76431],[120.72823,23.76445],[120.72832,23.76449],[120.72838,23.76453],[120.72845,23.76459],[120.72858,23.76506],[120.72864,23.76517],[120.72877,23.76521],[120.72897,23.76522],[120.7295,23.76516],[120.72961,23.76518],[120.72977,23.76527],[120.72997,23.76541],[120.73016,23.76547],[120.73092,23.76558],[120.73112,23.76564],[120.73129,23.76577],[120.73142,23.76591],[120.73153,23.7661],[120.73181,23.76675],[120.73186,23.76688],[120.7321,23.76716],[120.7322,23.76724],[120.73273,23.76772],[120.7329,23.76785],[120.73312,23.76797],[120.73329,23.76805],[120.73429,23.76842],[120.73548,23.76888],[120.73563,23.76888],[120.73569,23.76886],[120.73576,23.7688],[120.73576,23.7688],[120.73614,23.76869],[120.73623,23.76864],[120.73633,23.76852],[120.73639,23.76844],[120.73653,23.76811],[120.73671,23.76773],[120.73705,23.76699],[120.73713,23.76697],[120.73733,23.76691],[120.73816,23.7665],[120.73896,23.76614],[120.73928,23.76601],[120.73958,23.76586],[120.73994,23.7657],[120.74017,23.76566],[120.74045,23.7656],[120.74089,23.76554],[120.74098,23.76553],[120.74281,23.76524],[120.74288,23.76523],[120.74309,23.76523],[120.74335,23.7653],[120.74394,23.76549],[120.744,23.76551],[120.74439,23.76565],[120.74439,23.76565],[120.74452,23.76544],[120.74457,23.76533],[120.74459,23.76524],[120.7446,23.76513],[120.74456,23.76499],[120.74448,23.76485],[120.74442,23.76473],[120.74424,23.7645],[120.74402,23.76425],[120.7439,23.76406],[120.74384,23.7639],[120.74381,23.76375],[120.74375,23.76343],[120.74363,23.76293],[120.74332,23.76201],[120.74306,23.76117],[120.74294,23.76082],[120.74291,23.76069],[120.7429,23.76056],[120.74292,23.76042],[120.74296,23.76027],[120.74306,23.76007],[120.7432,23.75984],[120.74351,23.75941],[120.74367,23.75917],[120.74373,23.75905],[120.74377,23.7589],[120.74379,23.75871],[120.74381,23.75844],[120.74386,23.75826],[120.74393,23.75811],[120.74406,23.75797],[120.74428,23.7578],[120.74448,23.75766],[120.74463,23.75754],[120.74479,23.75734],[120.74498,23.75708],[120.74509,23.7569],[120.74515,23.75677],[120.74519,23.75662],[120.74521,23.75642],[120.7452,23.75615],[120.74522,23.75599],[120.74525,23.75584],[120.74529,23.75573],[120.74536,23.75559],[120.74544,23.75542],[120.74554,23.75511],[120.74576,23.75438],[120.74584,23.75417],[120.74593,23.75394],[120.74596,23.75381],[120.74597,23.75369],[120.74596,23.75359],[120.74595,23.75352],[120.74591,23.75346],[120.74591,23.75346],[120.74661,23.75262],[120.74685,23.75241],[120.74713,23.75217],[120.74726,23.75209],[120.74758,23.75189],[120.74857,23.75141],[120.74876,23.75126],[120.74884,23.75118],[120.74897,23.75107],[120.74961,23.75035],[120.75,23.74991],[120.75011,23.7498],[120.75035,23.74961],[120.75043,23.74955],[120.75078,23.74927],[120.75086,23.74916],[120.75086,23.74916],[120.75099,23.74882],[120.75161,23.74736],[120.75215,23.74615],[120.75282,23.74457],[120.75294,23.74438],[120.75304,23.74428],[120.7537,23.74372],[120.75376,23.74368],[120.75382,23.74363],[120.7542,23.74337],[120.75443,23.74322],[120.75468,23.74308],[120.75495,23.74294],[120.75515,23.74288],[120.75536,23.74282],[120.7556,23.74277],[120.75583,23.74274],[120.75602,23.7427],[120.75602,23.7427],[120.75666,23.74199],[120.75717,23.74143],[120.75724,23.74136],[120.75805,23.74051],[120.75816,23.74041],[120.75816,23.74041],[120.75867,23.73944],[120.75873,23.73933],[120.75882,23.73924],[120.75929,23.73882],[120.75937,23.73876],[120.75967,23.73846],[120.7598,23.7383],[120.75985,23.7382],[120.75992,23.7379],[120.75995,23.73766],[120.75997,23.73755],[120.76,23.7374],[120.76007,23.73703],[120.76017,23.73678],[120.76031,23.73655],[120.76032,23.73652],[120.76045,23.73643],[120.76045,23.73643],[120.76034,23.73617],[120.7603,23.73599],[120.76025,23.73585],[120.76025,23.73576],[120.76024,23.7357],[120.76025,23.73563],[120.76031,23.73552],[120.76045,23.73536],[120.76095,23.73493],[120.76125,23.7347],[120.76142,23.73448],[120.7615,23.73433],[120.76157,23.7342],[120.76161,23.73405],[120.76165,23.73375],[120.76165,23.73266],[120.76162,23.73239],[120.76158,23.73222],[120.76154,23.73204],[120.76151,23.7319],[120.76147,23.73178],[120.76146,23.73168],[120.76146,23.73152],[120.76146,23.73152],[120.76146,23.7309],[120.76147,23.73049],[120.76148,23.73017],[120.7615,23.72952],[120.76151,23.72901],[120.76152,23.72823],[120.76153,23.72815],[120.76153,23.72815],[120.76142,23.72819],[120.76133,23.72819],[120.76123,23.72819],[120.76114,23.72817],[120.76074,23.72806],[120.76054,23.72802],[120.76006,23.728],[120.75986,23.72802],[120.75975,23.72804],[120.75952,23.72811],[120.75933,23.72819],[120.75913,23.72832],[120.75875,23.72867],[120.75867,23.72872],[120.75856,23.72876],[120.75845,23.72876],[120.75835,23.72874],[120.75824,23.7287],[120.75818,23.72863],[120.75817,23.72861],[120.75813,23.72855],[120.75808,23.72842],[120.75781,23.72721],[120.75779,23.72714],[120.75777,23.72699],[120.75774,23.72679],[120.7576,23.7261],[120.7576,23.7261],[120.75772,23.72603],[120.75798,23.72595],[120.75818,23.72603],[120.75831,23.72607],[120.7585,23.72613],[120.75942,23.7266],[120.75954,23.72665],[120.75976,23.72673],[120.76018,23.72688],[120.76025,23.72689],[120.76032,23.72688],[120.76039,23.72686],[120.76082,23.72666],[120.76095,23.72663],[120.76111,23.72659],[120.76162,23.72654],[120.76193,23.7265],[120.76211,23.72645],[120.76225,23.7264],[120.7624,23.72635],[120.76265,23.72624],[120.76302,23.72611],[120.76307,23.7261],[120.76314,23.72605],[120.7632,23.72599],[120.76325,23.7259],[120.76328,23.72582],[120.76331,23.72571],[120.76336,23.72553],[120.76339,23.72545],[120.76365,23.72495],[120.76371,23.72489],[120.76407,23.72459],[120.76419,23.72449],[120.76464,23.72421],[120.76469,23.72417],[120.76476,23.72409],[120.76492,23.72383],[120.76509,23.72361],[120.76526,23.72339],[120.76552,23.72315],[120.76585,23.72291],[120.76609,23.72274],[120.76614,23.7227],[120.76686,23.72215],[120.76745,23.72172],[120.76752,23.72168],[120.7678,23.72156],[120.76794,23.72152],[120.76813,23.72148],[120.76819,23.72146],[120.76821,23.72142],[120.76821,23.72137],[120.76815,23.72099],[120.76815,23.72094],[120.76818,23.72089],[120.76822,23.72084],[120.76902,23.72031],[120.76909,23.72026],[120.76912,23.72024],[120.7695,23.71996],[120.76959,23.71992],[120.7699,23.7198],[120.77007,23.71974],[120.77056,23.71942],[120.77062,23.71935],[120.77067,23.71929],[120.77077,23.71893],[120.77092,23.71862],[120.77097,23.71853],[120.77116,23.71811],[120.77127,23.71796],[120.77148,23.71764],[120.77161,23.71753],[120.77172,23.71749],[120.77183,23.71747],[120.77241,23.71749],[120.77249,23.71747],[120.77256,23.71742],[120.77258,23.71738],[120.7726,23.71732],[120.77258,23.71725],[120.77256,23.71719],[120.77251,23.71712],[120.77219,23.71691],[120.77213,23.71684],[120.77207,23.71678],[120.77202,23.71672],[120.77202,23.71672]]}}